[{"OBJECT_NAME":"OBJECT H","OBJECT_ID":"2025-055H","EPOCH":"2026-03-09T23:29:50.051328","MEAN_MOTION":15.30330066,"ECCENTRICITY":0.00075967,"INCLINATION":97.636,"RA_OF_ASC_NODE":211.9572,"ARG_OF_PERICENTER":140.4354,"MEAN_ANOMALY":219.7441,"EPHEMERIS_TYPE":0,"CLASSIFICATION_TYPE":"U","NORAD_CAT_ID":63298,"ELEMENT_SET_NO":999,"REV_AT_EPOCH":5423,"BSTAR":0.0015582864,"MEAN_MOTION_DOT":0.00045901,"MEAN_MOTION_DDOT":0},{"OBJECT_NAME":"STARLINK-35652","OBJECT_ID":"2025-257P","EPOCH":"2026-03-09T17:20:02.890752","MEAN_MOTION":15.30202547,"ECCENTRICITY":9.248e-5,"INCLINATION":53.1596,"RA_OF_ASC_NODE":217.2148,"ARG_OF_PERICENTER":95.0031,"MEAN_ANOMALY":265.1075,"EPHEMERIS_TYPE":0,"CLASSIFICATION_TYPE":"U","NORAD_CAT_ID":66393,"ELEMENT_SET_NO":999,"REV_AT_EPOCH":1973,"BSTAR":0.0011494986,"MEAN_MOTION_DOT":0.00033843,"MEAN_MOTION_DDOT":0}]
